start=new Date('2023-06-24T00:00:00.000Z').valueOf();
sats=[{"OBJECT_NAME":"STARLINK-3651","ECCENTRICITY":"0.00010180","TIME_SYSTEM":"UTC","SITE":"AFETR","COUNTRY_CODE":"US","DECAY_DATE":null,"CENTER_NAME":"EARTH","OBJECT_TYPE":"PAYLOAD","BSTAR":"-0.00001939600000","PERIOD":"95.438","MEAN_ANOMALY":"273.7448","REV_AT_EPOCH":"7264","ELEMENT_SET_NO":"999","SEMIMAJOR_AXIS":"6917.892","MEAN_MOTION":"15.08836269","INCLINATION":"53.2154","EPOCH":"2023-06-23T09:10:40.134144","RCS_SIZE":"LARGE","TLE_LINE1":"1 51985U 22025AF  23174.38240896 -.00000596  00000-0 -19396-4 0  9990","EPHEMERIS_TYPE":"0","MEAN_ELEMENT_THEORY":"SGP4","CLASSIFICATION_TYPE":"U","NORAD_CAT_ID":"51985","MEAN_MOTION_DOT":"-0.00000596","ARG_OF_PERICENTER":"86.3660","RA_OF_ASC_NODE":"164.7891","OBJECT_ID":"2022-025AF","MEAN_MOTION_DDOT":"0.0000000000000","TLE_LINE2":"2 51985  53.2154 164.7891 0001018  86.3660 273.7448 15.08836269 72647","APOAPSIS":"540.461","FILE":"3940551","LAUNCH_DATE":"2022-03-09","PERIAPSIS":"539.053","GP_ID":"234499603","REF_FRAME":"TEME"},{"OBJECT_NAME":"STARLINK-3645","ECCENTRICITY":"0.00009630","TIME_SYSTEM":"UTC","SITE":"AFETR","COUNTRY_CODE":"US","DECAY_DATE":null,"CENTER_NAME":"EARTH","OBJECT_TYPE":"PAYLOAD","BSTAR":"0.00002601400000","MEAN_ANOMALY":"277.6092","PERIOD":"95.438","REV_AT_EPOCH":"7260","SEMIMAJOR_AXIS":"6917.889","ELEMENT_SET_NO":"999","INCLINATION":"53.2158","MEAN_MOTION":"15.08837058","EPOCH":"2023-06-23T01:33:32.093856","RCS_SIZE":"LARGE","MEAN_ELEMENT_THEORY":"SGP4","TLE_LINE1":"1 51986U 22025AG  23174.06495479  .00000126  00000-0  26014-4 0  9997","EPHEMERIS_TYPE":"0","CLASSIFICATION_TYPE":"U","MEAN_MOTION_DOT":"0.00000126","NORAD_CAT_ID":"51986","ARG_OF_PERICENTER":"82.5010","RA_OF_ASC_NODE":"166.0513","OBJECT_ID":"2022-025AG","MEAN_MOTION_DDOT":"0.0000000000000","TLE_LINE2":"2 51986  53.2158 166.0513 0000963  82.5010 277.6092 15.08837058 72604","FILE":"3940291","APOAPSIS":"540.421","LAUNCH_DATE":"2022-03-09","PERIAPSIS":"539.088","GP_ID":"234493601","REF_FRAME":"TEME"},{"MEAN_MOTION_DOT":"0.00000699","NORAD_CAT_ID":"51987","ARG_OF_PERICENTER":"89.4625","RA_OF_ASC_NODE":"164.8843","EPOCH":"2023-06-23T08:37:29.917056","RCS_SIZE":"LARGE","CLASSIFICATION_TYPE":"U","MEAN_ELEMENT_THEORY":"SGP4","TLE_LINE1":"1 51987U 22025AH  23174.35937404  .00000699  00000-0  61967-4 0  9990","EPHEMERIS_TYPE":"0","LAUNCH_DATE":"2022-03-09","PERIAPSIS":"539.056","GP_ID":"234498807","REF_FRAME":"TEME","MEAN_MOTION_DDOT":"0.0000000000000","OBJECT_ID":"2022-025AH","FILE":"3940528","APOAPSIS":"540.437","TLE_LINE2":"2 51987  53.2158 164.8843 0000998  89.4625 270.6481 15.08839703 72641","COUNTRY_CODE":"US","CENTER_NAME":"EARTH","DECAY_DATE":null,"ECCENTRICITY":"0.00009980","OBJECT_NAME":"STARLINK-3644","TIME_SYSTEM":"UTC","SITE":"AFETR","PERIOD":"95.438","MEAN_ANOMALY":"270.6481","REV_AT_EPOCH":"7264","ELEMENT_SET_NO":"999","SEMIMAJOR_AXIS":"6917.881","INCLINATION":"53.2158","MEAN_MOTION":"15.08839703","OBJECT_TYPE":"PAYLOAD","BSTAR":"0.00006196700000"},{"BSTAR":"0.00000109660000","OBJECT_TYPE":"PAYLOAD","SEMIMAJOR_AXIS":"6917.901","MEAN_MOTION":"15.08833316","ELEMENT_SET_NO":"999","INCLINATION":"53.2159","REV_AT_EPOCH":"7271","MEAN_ANOMALY":"273.1719","PERIOD":"95.438","SITE":"AFETR","TIME_SYSTEM":"UTC","OBJECT_NAME":"STARLINK-3640","ECCENTRICITY":"0.00009900","DECAY_DATE":null,"CENTER_NAME":"EARTH","COUNTRY_CODE":"US","TLE_LINE2":"2 51988  53.2159 163.4802 0000990  86.9386 273.1719 15.08833316 72715","FILE":"3940847","APOAPSIS":"540.451","OBJECT_ID":"2022-025AJ","MEAN_MOTION_DDOT":"0.0000000000000","REF_FRAME":"TEME","GP_ID":"234505959","PERIAPSIS":"539.081","LAUNCH_DATE":"2022-03-09","MEAN_ELEMENT_THEORY":"SGP4","TLE_LINE1":"1 51988U 22025AJ  23174.67217674 -.00000270  00000-0  10966-5 0  9996","EPHEMERIS_TYPE":"0","CLASSIFICATION_TYPE":"U","RCS_SIZE":"LARGE","EPOCH":"2023-06-23T16:07:56.070336","ARG_OF_PERICENTER":"86.9386","RA_OF_ASC_NODE":"163.4802","MEAN_MOTION_DOT":"-0.00000270","NORAD_CAT_ID":"51988"},{"OBJECT_TYPE":"PAYLOAD","BSTAR":"0.00005104900000","ELEMENT_SET_NO":"999","SEMIMAJOR_AXIS":"6917.889","INCLINATION":"53.2159","MEAN_MOTION":"15.08837345","MEAN_ANOMALY":"275.8122","PERIOD":"95.438","REV_AT_EPOCH":"7260","SITE":"AFETR","ECCENTRICITY":"0.00011120","OBJECT_NAME":"STARLINK-3642","TIME_SYSTEM":"UTC","COUNTRY_CODE":"US","CENTER_NAME":"EARTH","DECAY_DATE":null,"MEAN_MOTION_DDOT":"0.0000000000000","OBJECT_ID":"2022-025AK","APOAPSIS":"540.523","FILE":"3940292","TLE_LINE2":"2 51989  53.2159 166.3900 0001112  84.2997 275.8122 15.08837345 72604","REF_FRAME":"TEME","LAUNCH_DATE":"2022-03-09","PERIAPSIS":"538.984","GP_ID":"234493122","RCS_SIZE":"LARGE","CLASSIFICATION_TYPE":"U","TLE_LINE1":"1 51989U 22025AK  23174.02449583  .00000525  00000-0  51049-4 0  9990","EPHEMERIS_TYPE":"0","MEAN_ELEMENT_THEORY":"SGP4","EPOCH":"2023-06-23T00:35:16.439712","RA_OF_ASC_NODE":"166.3900","ARG_OF_PERICENTER":"84.2997","NORAD_CAT_ID":"51989","MEAN_MOTION_DOT":"0.00000525"},{"INCLINATION":"53.2160","SEMIMAJOR_AXIS":"6917.887","ELEMENT_SET_NO":"999","MEAN_MOTION":"15.08837738","MEAN_ANOMALY":"261.7037","PERIOD":"95.438","REV_AT_EPOCH":"7288","OBJECT_TYPE":"PAYLOAD","BSTAR":"-0.00000382010000","COUNTRY_CODE":"US","CENTER_NAME":"EARTH","DECAY_DATE":null,"SITE":"AFETR","ECCENTRICITY":"0.00011550","OBJECT_NAME":"STARLINK-3657","TIME_SYSTEM":"UTC","REF_FRAME":"TEME","PERIAPSIS":"538.953","LAUNCH_DATE":"2022-03-09","GP_ID":"234493623","MEAN_MOTION_DDOT":"0.0000000000000","OBJECT_ID":"2022-025AL","FILE":"3940292","APOAPSIS":"540.551","TLE_LINE2":"2 51990  53.2160 146.2286 0001155  98.4086 261.7037 15.08837738 72880","ARG_OF_PERICENTER":"98.4086","RA_OF_ASC_NODE":"146.2286","MEAN_MOTION_DOT":"-0.00000349","NORAD_CAT_ID":"51990","RCS_SIZE":"LARGE","CLASSIFICATION_TYPE":"U","MEAN_ELEMENT_THEORY":"SGP4","TLE_LINE1":"1 51990U 22025AL  23174.05945476 -.00000349  00000-0 -38201-5 0  9999","EPHEMERIS_TYPE":"0","EPOCH":"2023-06-23T01:25:36.891264"},{"COUNTRY_CODE":"US","DECAY_DATE":null,"CENTER_NAME":"EARTH","SITE":"AFETR","OBJECT_NAME":"STARLINK-3652","ECCENTRICITY":"0.00011000","TIME_SYSTEM":"UTC","SEMIMAJOR_AXIS":"6917.889","ELEMENT_SET_NO":"999","INCLINATION":"53.2157","MEAN_MOTION":"15.08837157","MEAN_ANOMALY":"265.6912","PERIOD":"95.438","REV_AT_EPOCH":"7264","OBJECT_TYPE":"PAYLOAD","BSTAR":"0.00007259800000","RA_OF_ASC_NODE":"164.9352","ARG_OF_PERICENTER":"94.4206","MEAN_MOTION_DOT":"0.00000868","NORAD_CAT_ID":"51991","RCS_SIZE":"LARGE","TLE_LINE1":"1 51991U 22025AM  23174.34833184  .00000868  00000-0  72598-4 0  9994","EPHEMERIS_TYPE":"0","MEAN_ELEMENT_THEORY":"SGP4","CLASSIFICATION_TYPE":"U","EPOCH":"2023-06-23T08:21:35.870976","REF_FRAME":"TEME","LAUNCH_DATE":"2022-03-09","PERIAPSIS":"538.993","GP_ID":"234498642","OBJECT_ID":"2022-025AM","MEAN_MOTION_DDOT":"0.0000000000000","TLE_LINE2":"2 51991  53.2157 164.9352 0001100  94.4206 265.6912 15.08837157 72642","APOAPSIS":"540.515","FILE":"3940537"},{"OBJECT_TYPE":"PAYLOAD","BSTAR":"0.00005823000000","MEAN_MOTION":"15.08840495","SEMIMAJOR_AXIS":"6917.879","ELEMENT_SET_NO":"999","INCLINATION":"53.2158","MEAN_ANOMALY":"271.4269","PERIOD":"95.438","REV_AT_EPOCH":"7299","SITE":"AFETR","OBJECT_NAME":"STARLINK-3643","ECCENTRICITY":"0.00011440","TIME_SYSTEM":"UTC","COUNTRY_CODE":"US","DECAY_DATE":null,"CENTER_NAME":"EARTH","OBJECT_ID":"2022-025AN","MEAN_MOTION_DDOT":"0.0000000000000","TLE_LINE2":"2 51992  53.2158 143.6045 0001144  88.6854 271.4269 15.08840495 72996","APOAPSIS":"540.535","FILE":"3940842","REF_FRAME":"TEME","PERIAPSIS":"538.952","LAUNCH_DATE":"2022-03-09","GP_ID":"234505833","RCS_SIZE":"LARGE","MEAN_ELEMENT_THEORY":"SGP4","TLE_LINE1":"1 51992U 22025AN  23174.64457418  .00000639  00000-0  58230-4 0  9993","EPHEMERIS_TYPE":"0","CLASSIFICATION_TYPE":"U","EPOCH":"2023-06-23T15:28:11.209152","RA_OF_ASC_NODE":"143.6045","ARG_OF_PERICENTER":"88.6854","MEAN_MOTION_DOT":"0.00000639","NORAD_CAT_ID":"51992"},{"EPOCH":"2023-06-23T16:02:38.059584","RCS_SIZE":"LARGE","CLASSIFICATION_TYPE":"U","TLE_LINE1":"1 51993U 22025AP  23174.66849606 -.00000240  00000-0  29688-5 0  9995","MEAN_ELEMENT_THEORY":"SGP4","EPHEMERIS_TYPE":"0","NORAD_CAT_ID":"51993","MEAN_MOTION_DOT":"-0.00000240","ARG_OF_PERICENTER":"74.6854","RA_OF_ASC_NODE":"163.4962","MEAN_MOTION_DDOT":"0.0000000000000","OBJECT_ID":"2022-025AP","APOAPSIS":"540.420","FILE":"3940842","TLE_LINE2":"2 51993  53.2164 163.4962 0000947  74.6854 285.4242 15.08833536 72711","LAUNCH_DATE":"2022-03-09","PERIAPSIS":"539.110","GP_ID":"234505834","REF_FRAME":"TEME","ECCENTRICITY":"0.00009470","OBJECT_NAME":"STARLINK-3648","TIME_SYSTEM":"UTC","SITE":"AFETR","COUNTRY_CODE":"US","CENTER_NAME":"EARTH","DECAY_DATE":null,"OBJECT_TYPE":"PAYLOAD","BSTAR":"0.00000296880000","MEAN_ANOMALY":"285.4242","PERIOD":"95.438","REV_AT_EPOCH":"7271","MEAN_MOTION":"15.08833536","SEMIMAJOR_AXIS":"6917.900","ELEMENT_SET_NO":"999","INCLINATION":"53.2164"},{"MEAN_MOTION_DOT":"0.00001061","NORAD_CAT_ID":"51994","RA_OF_ASC_NODE":"145.1086","ARG_OF_PERICENTER":"87.7111","EPOCH":"2023-06-23T07:25:57.749952","CLASSIFICATION_TYPE":"U","TLE_LINE1":"1 51994U 22025AQ  23174.30969618  .00001061  00000-0  84755-4 0  9999","EPHEMERIS_TYPE":"0","MEAN_ELEMENT_THEORY":"SGP4","RCS_SIZE":"LARGE","GP_ID":"234504798","LAUNCH_DATE":"2022-03-09","PERIAPSIS":"538.909","REF_FRAME":"TEME","APOAPSIS":"540.561","FILE":"3940775","TLE_LINE2":"2 51994  53.2162 145.1086 0001194  87.7111 272.4018 15.08843432 72937","MEAN_MOTION_DDOT":"0.0000000000000","OBJECT_ID":"2022-025AQ","CENTER_NAME":"EARTH","DECAY_DATE":null,"COUNTRY_CODE":"US","TIME_SYSTEM":"UTC","ECCENTRICITY":"0.00011940","OBJECT_NAME":"STARLINK-3647","SITE":"AFETR","REV_AT_EPOCH":"7293","MEAN_ANOMALY":"272.4018","PERIOD":"95.437","ELEMENT_SET_NO":"999","SEMIMAJOR_AXIS":"6917.870","INCLINATION":"53.2162","MEAN_MOTION":"15.08843432","BSTAR":"0.00008475500000","OBJECT_TYPE":"PAYLOAD"}];
